GAOFEN-11 01            
1 43585U 18063A   26162.63989228  .00017445  00000+0  26013-3 0  9992
2 43585  97.1297 229.5358 0003825  18.4498 341.6895 15.55134160439483
ICESAT-2                
1 43613U 18070A   26162.58921362  .00008921  00000+0  32340-3 0  9990
2 43613  92.0068 289.4673 0005466 112.6684 247.5144 15.28318671431605
HYSIS                   
1 43719U 18096A   26162.59491824  .00000819  00000+0  11873-3 0  9997
2 43719  97.9842 229.3868 0001789 110.3626 249.7777 14.78683912406593
KAZSTSAT                
1 43783U 18099AB  26162.56017132  .00001239  00000+0  10446-3 0  9996
2 43783  97.4264 194.7445 0008150  84.3820 275.8334 14.99850014410460
SAUDISAT 5A             
1 43831U 18102A   26162.59847764  .00005172  00000+0  19181-3 0  9995
2 43831  97.3075 224.2870 0010640 146.3812 213.8105 15.27989763414829
SAUDISAT 5B             
1 43833U 18102C   26162.61826579  .00004791  00000+0  17648-3 0  9993
2 43833  97.3182 227.3659 0011304 148.8129 211.3783 15.28249983414947
GAOFEN-10R              
1 44622U 19066A   26162.62130659  .00000987  00000+0  12807-3 0  9993
2 44622  98.0496 116.1600 0006305 142.7355 217.4296 14.83048667361550
CARTOSAT-3              
1 44804U 19081A   26162.62479863  .00003870  00000+0  18653-3 0  9994
2 44804  97.4315 224.5810 0012704 166.4435 193.7144 15.19244268362626
GAOFEN-12 01            
1 44819U 19082A   26162.60508904  .00000338  00000+0  50866-4 0  9997
2 44819  97.8106 169.1319 0002415  76.7047 283.4435 14.80453929353265
CSG-1                   
1 44873U 19092A   26162.44795789  .00000333  00000+0  48405-4 0  9990
2 44873  97.8887 346.1336 0001444  90.9927 269.1452 14.82160067350620
NEMO-HD                 
1 46277U 20061F   26162.62289694  .00009790  00000+0  21315-3 0  9997
2 46277  97.1928 224.6320 0002463  87.3067 272.8464 15.44482649321128
SENTINEL-6A             
1 46984U 20086A   26162.30786474 -.00000031  00000+0  12839-3 0  9993
2 46984  66.0388 147.2638 0007940 270.2561  89.7545 12.80929900259574
CAS500-1                
1 47932U 21022A   26162.59961539  .00005779  00000+0  27028-3 0  9995
2 47932  97.3913  57.9661 0004220 328.4758  31.6224 15.20142345289912
GAOFEN-12 02            
1 48079U 21026A   26162.61555042  .00000327  00000+0  49850-4 0  9995
2 48079  97.9920 160.8190 0003394 246.2485 113.8371 14.80291918280930
PLEIADES NEO 3          
1 48268U 21034A   26162.64795376  .00001678  00000+0  21971-3 0  9996
2 48268  97.8930 237.4946 0001436  89.6805 270.4573 14.81678226276830
PLEIADES NEO 4          
1 49070U 21073E   26162.61419456  .00000766  00000+0  10391-3 0  9991
2 49070  97.8934 237.4567 0001379  85.1612 274.9759 14.81677221260548
LANDSAT 9               
1 49260U 21088A   26162.42822181  .00000245  00000+0  64371-4 0  9990
2 49260  98.2279 232.6751 0001447  87.8935 272.2430 14.57106570250162
CSG-2                   
1 51444U 22008A   26162.61673050  .00000619  00000+0  84288-4 0  9994
2 51444  97.8890 346.2955 0001450  86.5514 273.5865 14.82153868235769
GAOFEN-12 03            
1 52912U 22069A   26162.64446078  .00000725  00000+0  10249-3 0  9996
2 52912  97.8290  50.6540 0001843 109.7394 250.4017 14.80025159213791
SWOT                    
1 54754U 22173A   26162.62918124  .00000109  00000+0  75944-4 0  9992
2 54754  77.6110  42.8134 0000248  98.0059 262.1121 14.00168922178370
GAOFEN-12 04            
1 57654U 23123A   26162.59427144  .00000811  00000+0  11344-3 0  9996
2 57654  97.9125  80.6923 0001800  85.5815 274.5602 14.80217839151805
PARS 1                  
1 59065U 24039Q   26162.61748407  .00010665  00000+0  22297-3 0  9999
2 59065  97.4815 143.3620 0011146 128.2375 231.9879 15.45609855127783
RESURS-P 4              
1 59371U 24061A   26162.64637339  .00002920  00000+0  96675-4 0  9995
2 59371  97.2748 110.6416 0001733 130.5621 229.5772 15.32100023122911
LEGION 1                
1 59625U 24081A   26162.55301053  .00003565  00000+0  18560-3 0  9992
2 59625  97.5020 240.4700 0010051  36.4365 323.7550 15.16628348116684
LEGION 2                
1 59626U 24081B   26162.58291294  .00003333  00000+0  17378-3 0  9990
2 59626  97.5020 240.5972 0011296   3.7610 356.3706 15.16607266116691
ALOS-4 (DAICHI-4)       
1 60182U 24123A   26162.61261659  .00001241  00000+0  17304-3 0  9997
2 60182  97.9243 259.8645 0001632  96.8975 263.2422 14.79475906105052
LEGION 3                
1 60452U 24146A   26162.59588372  .00003869  00000+0  21145-3 0  9999
2 60452  45.0021  60.5407 0007096 135.8751 224.2695 15.15998352101173
LEGION 4                
1 60453U 24146B   26162.46714088  .00002807  00000+0  15705-3 0  9997
2 60453  45.0001 153.1422 0014103 278.5886  81.3395 15.15989990100007
SENTINEL-2C             
1 60989U 24157A   26162.43827724  .00000069  00000+0  43063-4 0  9999
2 60989  98.5691 237.3014 0001115  80.0269 280.1040 14.30816216 92160
IONOSFERA-M 1           
1 61735U 24199A   26162.56771559  .00000043  00000+0  38725-4 0  9994
2 61735  98.7181  35.7991 0001785 117.8377 242.2983 14.22753239126903
