OBJECT_NAME,OBJECT_ID,EPOCH,MEAN_MOTION,ECCENTRICITY,INCLINATION,RA_OF_ASC_NODE,ARG_OF_PERICENTER,MEAN_ANOMALY,EPHEMERIS_TYPE,CLASSIFICATION_TYPE,NORAD_CAT_ID,ELEMENT_SET_NO,REV_AT_EPOCH,BSTAR,MEAN_MOTION_DOT,MEAN_MOTION_DDOT
GAOFEN-11 01,2018-063A,2026-06-11T15:21:26.692992,15.55134160,.00038255,97.1297,229.5358,18.4498,341.6895,0,U,43585,999,43948,.26013447E-3,.17445E-3,0
ICESAT-2,2018-070A,2026-06-11T14:08:28.056768,15.28318671,.00054669,92.0068,289.4673,112.6684,247.5144,0,U,43613,999,43160,.32339843E-3,.8921E-4,0
HYSIS,2018-096A,2026-06-11T14:16:40.935936,14.78683912,.00017891,97.9842,229.3868,110.3626,249.7777,0,U,43719,999,40659,.11872998E-3,.819E-5,0
KAZSTSAT,2018-099AB,2026-06-11T13:26:38.802048,14.99850014,.00081505,97.4264,194.7445,84.3820,275.8334,0,U,43783,999,41046,.10445981E-3,.1239E-4,0
SAUDISAT 5A,2018-102A,2026-06-11T14:21:48.468096,15.27989763,.00106406,97.3075,224.2870,146.3812,213.8105,0,U,43831,999,41482,.19181025E-3,.5172E-4,0
SAUDISAT 5B,2018-102C,2026-06-11T14:50:18.164256,15.28249983,.00113045,97.3182,227.3659,148.8129,211.3783,0,U,43833,999,41494,.17647731E-3,.4791E-4,0
GAOFEN-10R,2019-066A,2026-06-11T14:54:40.889376,14.83048667,.00063055,98.0496,116.1600,142.7355,217.4296,0,U,44622,999,36155,.12806987E-3,.987E-5,0
CARTOSAT-3,2019-081A,2026-06-11T14:59:42.601632,15.19244268,.00127048,97.4315,224.5810,166.4435,193.7144,0,U,44804,999,36262,.18653195E-3,.387E-4,0
GAOFEN-12 01,2019-082A,2026-06-11T14:31:19.693056,14.80453929,.00024157,97.8106,169.1319,76.7047,283.4435,0,U,44819,999,35326,.50865782E-4,.338E-5,0
CSG-1,2019-092A,2026-06-11T10:45:03.561696,14.82160067,.00014447,97.8887,346.1336,90.9927,269.1452,0,U,44873,999,35062,.4840528E-4,.333E-5,0
NEMO-HD,2020-061F,2026-06-11T14:56:58.295616,15.44482649,.00024631,97.1928,224.6320,87.3067,272.8464,0,U,46277,999,32112,.21315216E-3,.979E-4,0
SENTINEL-6A,2020-086A,2026-06-11T07:23:19.513536,12.80929900,.00079401,66.0388,147.2638,270.2561,89.7545,0,U,46984,999,25957,.12839187E-3,-.31E-6,0
CAS500-1,2021-022A,2026-06-11T14:23:26.769696,15.20142345,.00042208,97.3913,57.9661,328.4758,31.6224,0,U,47932,999,28991,.2702846E-3,.5779E-4,0
GAOFEN-12 02,2021-026A,2026-06-11T14:46:23.556288,14.80291918,.00033942,97.9920,160.8190,246.2485,113.8371,0,U,48079,999,28093,.49849716E-4,.327E-5,0
PLEIADES NEO 3,2021-034A,2026-06-11T15:33:03.204864,14.81678226,.00014365,97.8930,237.4946,89.6805,270.4573,0,U,48268,999,27683,.21971162E-3,.1678E-4,0
PLEIADES NEO 4,2021-073E,2026-06-11T14:44:26.409984,14.81677221,.00013792,97.8934,237.4567,85.1612,274.9759,0,U,49070,999,26054,.10390781E-3,.766E-5,0
LANDSAT 9,2021-088A,2026-06-11T10:16:38.364384,14.57106570,.00014477,98.2279,232.6751,87.8935,272.2430,0,U,49260,999,25016,.64371282E-4,.245E-5,0
CSG-2,2022-008A,2026-06-11T14:48:05.515200,14.82153868,.00014503,97.8890,346.2955,86.5514,273.5865,0,U,51444,999,23576,.84288019E-4,.619E-5,0
GAOFEN-12 03,2022-069A,2026-06-11T15:28:01.411392,14.80025159,.00018435,97.8290,50.6540,109.7394,250.4017,0,U,52912,999,21379,.1024907E-3,.725E-5,0
SWOT,2022-173A,2026-06-11T15:06:01.259136,14.00168922,.00002485,77.6110,42.8134,98.0059,262.1121,0,U,54754,999,17837,.7594449E-4,.109E-5,0
GAOFEN-12 04,2023-123A,2026-06-11T14:15:45.052416,14.80217839,.00018009,97.9125,80.6923,85.5815,274.5602,0,U,57654,999,15180,.11344432E-3,.811E-5,0
PARS 1,2024-039Q,2026-06-11T14:49:10.623648,15.45609855,.0011146,97.4815,143.3620,128.2375,231.9879,0,U,59065,999,12778,.22296539E-3,.10665E-3,0
RESURS-P 4,2024-061A,2026-06-11T15:30:46.660896,15.32100023,.00017335,97.2748,110.6416,130.5621,229.5772,0,U,59371,999,12291,.96675327E-4,.292E-4,0
LEGION 1,2024-081A,2026-06-11T13:16:20.109792,15.16628348,.00100511,97.5020,240.4700,36.4365,323.7550,0,U,59625,999,11668,.1856046E-3,.3565E-4,0
LEGION 2,2024-081B,2026-06-11T13:59:23.678016,15.16607266,.00112966,97.5020,240.5972,3.7610,356.3706,0,U,59626,999,11669,.17378168E-3,.3333E-4,0
ALOS-4 (DAICHI-4),2024-123A,2026-06-11T14:42:10.073376,14.79475906,.00016323,97.9243,259.8645,96.8975,263.2422,0,U,60182,999,10505,.17303643E-3,.1241E-4,0
LEGION 3,2024-146A,2026-06-11T14:18:04.353408,15.15998352,.0007096,45.0021,60.5407,135.8751,224.2695,0,U,60452,999,10117,.21145146E-3,.3869E-4,0
LEGION 4,2024-146B,2026-06-11T11:12:40.972032,15.15989990,.00141031,45.0001,153.1422,278.5886,81.3395,0,U,60453,999,10000,.15704617E-3,.2807E-4,0
SENTINEL-2C,2024-157A,2026-06-11T10:31:07.153536,14.30816216,.00011152,98.5691,237.3014,80.0269,280.1040,0,U,60989,999,9216,.4306306E-4,.69E-6,0
IONOSFERA-M 1,2024-199A,2026-06-11T13:37:30.626976,14.22753239,.00017859,98.7181,35.7991,117.8377,242.2983,0,U,61735,999,12690,.38725499E-4,.43E-6,0
